[{"OBJECT_NAME":"PRISMA","OBJECT_ID":"2019-015A","EPOCH":"2026-03-09T22:24:54.380736","MEAN_MOTION":14.83635858,"ECCENTRICITY":0.00014734,"INCLINATION":97.871,"RA_OF_ASC_NODE":145.1563,"ARG_OF_PERICENTER":87.5079,"MEAN_ANOMALY":272.6304,"EPHEMERIS_TYPE":0,"CLASSIFICATION_TYPE":"U","NORAD_CAT_ID":44072,"ELEMENT_SET_NO":999,"REV_AT_EPOCH":37733,"BSTAR":9.2638496e-5,"MEAN_MOTION_DOT":7.12e-6,"MEAN_MOTION_DDOT":0},{"OBJECT_NAME":"GEESAT-6 08","OBJECT_ID":"2025-214J","EPOCH":"2026-03-09T22:14:05.578944","MEAN_MOTION":14.83021735,"ECCENTRICITY":0.00096397,"INCLINATION":49.9907,"RA_OF_ASC_NODE":48.1729,"ARG_OF_PERICENTER":195.6006,"MEAN_ANOMALY":164.4636,"EPHEMERIS_TYPE":0,"CLASSIFICATION_TYPE":"U","NORAD_CAT_ID":65720,"ELEMENT_SET_NO":999,"REV_AT_EPOCH":2477,"BSTAR":0.00036802718,"MEAN_MOTION_DOT":2.801e-5,"MEAN_MOTION_DDOT":0}]
